ORBCOMM FM05            
1 25117U 97084F   25310.66160926  .00002890  00000+0  83485-3 0  9990
2 25117  45.0151  43.7314 0004146 220.3182 139.7363 14.46496906461236
ORBCOMM FM06            
1 25118U 97084G   25310.66958942  .00002995  00000+0  86104-3 0  9991
2 25118  45.0141  43.2633 0003089 222.6578 294.8157 14.46650572462151
ORBCOMM FM07            
1 25119U 97084H   25310.65208837  .00002683  00000+0  77506-3 0  9992
2 25119  45.0139  44.1028 0004943 217.1647 142.8863 14.46671558462145
ORBCOMM FM03            
1 25158U 98007B   25310.78513350  .00001532  00000+0  57861-3 0  9998
2 25158 107.9641  68.5895 0044197 356.2968   3.7840 14.34874494444491
ORBCOMM FM04            
1 25159U 98007C   25310.60558021  .00001569  00000+0  58955-3 0  9999
2 25159 107.9634  71.5371 0040082 353.6102   6.4522 14.35119192444650
ORBCOMM FM17            
1 25413U 98046A   25310.25955642  .00001362  00000+0  51863-3 0  9998
2 25413  44.9948 306.9525 0003969 241.0930 118.9519 14.35416676423580
ORBCOMM FM18            
1 25414U 98046B   25310.48954042  .00001893  00000+0  65340-3 0  9991
2 25414  44.9923 219.4097 0005386 294.9623  65.0665 14.38995966424747
ORBCOMM FM19            
1 25415U 98046C   25310.81028661  .00001886  00000+0  65359-3 0  9990
2 25415  44.9934 220.1054 0004125 295.7020 106.4532 14.38812556424748
